{
  "norad_id": 68596,
  "name": "KUIPER-00297",
  "history": [
    {
      "epoch": "2026-04-09T12:10:51.604608Z",
      "apogee_km": 464.8351391284341,
      "perigee_km": 450.63703073103443,
      "latitude_deg": 2.228213950148912e-05,
      "longitude_deg": 128.6522587713704,
      "height_km": 463.60689334008157,
      "semi_major_axis_km": 6835.873084929734,
      "eccentricity": 0.0010385,
      "inclination_deg": 51.8622,
      "raan_deg": 149.122,
      "arg_perigee_deg": 136.1757,
      "mean_anomaly_deg": 224.0055,
      "mean_motion_rev_day": 15.36072717
    }
  ]
}